[{"OBJECT_NAME":"KUIPER-00121","OBJECT_ID":"2025-228D","EPOCH":"2026-03-09T22:33:16.731072","MEAN_MOTION":14.79887905,"ECCENTRICITY":8.902e-5,"INCLINATION":51.9015,"RA_OF_ASC_NODE":351.9872,"ARG_OF_PERICENTER":113.9064,"MEAN_ANOMALY":246.1992,"EPHEMERIS_TYPE":0,"CLASSIFICATION_TYPE":"U","NORAD_CAT_ID":65950,"ELEMENT_SET_NO":999,"REV_AT_EPOCH":2337,"BSTAR":-3.737894e-5,"MEAN_MOTION_DOT":-5.06e-6,"MEAN_MOTION_DDOT":0},{"OBJECT_NAME":"COSMOS 2251 DEB","OBJECT_ID":"1993-036AKD","EPOCH":"2026-03-07T21:53:24.851616","MEAN_MOTION":14.8143349,"ECCENTRICITY":0.00072163,"INCLINATION":74.009,"RA_OF_ASC_NODE":296.0449,"ARG_OF_PERICENTER":6.5843,"MEAN_ANOMALY":11.0379,"EPHEMERIS_TYPE":0,"CLASSIFICATION_TYPE":"U","NORAD_CAT_ID":35435,"ELEMENT_SET_NO":999,"REV_AT_EPOCH":88799,"BSTAR":0.0025496994,"MEAN_MOTION_DOT":0.00019995,"MEAN_MOTION_DDOT":0}]
